NORAD_CAT_ID,OBJECT_NAME,OBJECT_TYPE,EPOCH,MEAN_MOTION,ECCENTRICITY,INCLINATION,RA_OF_ASC_NODE,ARG_OF_PERICENTER,MEAN_ANOMALY,BSTAR,MEAN_MOTION_DOT,MEAN_MOTION_DDOT,TLE_LINE0,TLE_LINE1,TLE_LINE2,SEMIMAJOR_AXIS,PERIOD,APOGEE,PERIGEE,DECAYED
55310.0,STARLINK-5309,PAYLOAD,2024-07-18 22:37:13,14.98330787,0.0002694,70.0005,74.1945,268.651,91.434,7.6035e-06,-2e-08,0.0,0 STARLINK-5309,1 55310U 23010AT  24200.94251982 -.00000002  00000-0  76035-5 0  9997,2 55310  70.0005  74.1945 0002694 268.6510  91.4340 14.98330787 84088,6950.19,96.107,573.928,570.183,0.0
55310.0,STARLINK-5309,PAYLOAD,2024-07-19 08:14:02,14.98328141,0.0002583,70.0008,73.1844,265.5626,94.5238,7.9759e-05,8.59e-06,0.0,0 STARLINK-5309,1 55310U 23010AT  24201.34307950  .00000859  00000-0  79759-4 0  9993,2 55310  70.0008  73.1844 0002583 265.5626  94.5238 14.98328141 84147,6950.199,96.107,573.859,570.268,0.0
55310.0,STARLINK-5309,PAYLOAD,2024-07-19 21:03:06,14.98329154,0.0002752,70.0005,71.8376,273.8205,86.264,0.00010958,1.215e-05,0.0,0 STARLINK-5309,1 55310U 23010AT  24201.87715716  .00001215  00000-0  10958-3 0  9996,2 55310  70.0005  71.8376 0002752 273.8205  86.2640 14.98329154 83905,6950.196,96.107,573.973,570.148,0.0
55310.0,STARLINK-5309,PAYLOAD,2024-07-19 22:39:14,14.98328973,0.000275,70.0005,71.6695,271.8272,88.2572,0.00010736,1.188e-05,0.0,0 STARLINK-5309,1 55310U 23010AT  24201.94391731  .00001188  00000-0  10736-3 0  9994,2 55310  70.0005  71.6695 0002750 271.8272  88.2572 14.98328973 84238,6950.196,96.107,573.972,570.15,0.0
55310.0,STARLINK-5309,PAYLOAD,2024-07-20 08:16:02,14.98330612,0.0002685,70.0008,70.6594,271.1979,88.8873,5.6674e-05,5.83e-06,0.0,0 STARLINK-5309,1 55310U 23010AT  24202.34447741  .00000583  00000-0  56674-4 0  9992,2 55310  70.0008  70.6594 0002685 271.1979  88.8873 14.98330612 84291,6950.191,96.107,573.922,570.19,0.0
55310.0,STARLINK-5309,PAYLOAD,2024-07-20 21:05:07,14.98330233,0.0002741,70.0007,69.3139,265.3468,94.7378,1.404e-05,7.5e-07,0.0,0 STARLINK-5309,1 55310U 23010AT  24202.87855875  .00000075  00000-0  14040-4 0  9998,2 55310  70.0007  69.3139 0002741 265.3468  94.7378 14.98330233 84050,6950.192,96.107,573.962,570.152,0.0
55310.0,STARLINK-5309,PAYLOAD,2024-07-20 22:41:15,14.98329322,0.0002771,70.0006,69.1456,264.3721,95.7122,3.5506e-07,-8.9e-07,0.0,0 STARLINK-5309,1 55310U 23010AT  24202.94531961 -.00000089  00000-0  35506-6 0  9991,2 55310  70.0006  69.1456 0002771 264.3721  95.7122 14.98329322 84384,6950.195,96.107,573.986,570.134,0.0
55310.0,STARLINK-5309,PAYLOAD,2024-07-21 00:17:23,14.98331067,0.0002746,70.0006,68.977,264.4828,95.6018,2.1957e-05,1.69e-06,0.0,0 STARLINK-5309,1 55310U 23010AT  24203.01207792  .00000169  00000-0  21957-4 0  9993,2 55310  70.0006  68.9770 0002746 264.4828  95.6018 14.98331067 84394,6950.19,96.107,573.963,570.146,0.0
55310.0,STARLINK-5309,PAYLOAD,2024-07-21 21:07:08,14.98329943,0.0002741,70.0007,66.7889,263.9722,96.1125,-1.6493e-05,-2.9e-06,0.0,0 STARLINK-5309,1 55310U 23010AT  24203.87995932 -.00000290  00000-0 -16493-4 0  9993,2 55310  70.0007  66.7889 0002741 263.9722  96.1125 14.98329943 84209,6950.193,96.107,573.963,570.153,0.0
55310.0,STARLINK-5309,PAYLOAD,2024-07-22 14:44:37,14.98328507,0.0002823,70.0004,64.9369,264.7662,95.3175,6.5418e-05,6.88e-06,0.0,0 STARLINK-5309,1 55310U 23010AT  24204.61431768  .00000688  00000-0  65418-4 0  9998,2 55310  70.0004  64.9369 0002823 264.7662  95.3175 14.98328507 84630,6950.198,96.107,574.025,570.1,0.0
55310.0,STARLINK-5309,PAYLOAD,2024-07-23 00:21:25,14.98334239,0.0002869,70.0002,63.9264,264.9671,95.116,8.4975e-05,9.21e-06,0.0,0 STARLINK-5309,1 55310U 23010AT  24205.01487335  .00000921  00000-0  84975-4 0  9993,2 55310  70.0002  63.9264 0002869 264.9671  95.1160 14.98334239 84375,6950.18,96.107,574.039,570.051,0.0
55310.0,STARLINK-5309,PAYLOAD,2024-07-23 08:22:05,14.98331767,0.0002844,70.0003,63.0836,270.3612,89.7221,4.904e-05,4.92e-06,0.0,0 STARLINK-5309,1 55310U 23010AT  24205.34867586  .00000492  00000-0  49040-4 0  9996,2 55310  70.0003  63.0836 0002844 270.3612  89.7221 14.98331767 84742,6950.187,96.107,574.029,570.076,0.0
55310.0,STARLINK-5309,PAYLOAD,2024-07-23 22:47:18,14.98323031,0.0002802,70.0004,61.5691,268.5812,91.5026,-1.1624e-05,-2.32e-06,0.0,0 STARLINK-5309,1 55310U 23010AT  24205.94952437 -.00000232  00000-0 -11624-4 0  9993,2 55310  70.0004  61.5691 0002802 268.5812  91.5026 14.98323031 84839,6950.214,96.107,574.027,570.132,0.0
55310.0,STARLINK-5309,PAYLOAD,2024-07-24 00:23:26,14.98323541,0.0002805,70.0006,61.4012,270.5847,89.4991,-6.7587e-06,-1.74e-06,0.0,0 STARLINK-5309,1 55310U 23010AT  24206.01628431 -.00000174  00000-0 -67587-5 0  9991,2 55310  70.0006  61.4012 0002805 270.5847  89.4991 14.98323541 84520,6950.213,96.107,574.027,570.128,0.0
55310.0,STARLINK-5309,PAYLOAD,2024-07-24 22:49:18,14.98336798,0.0002792,70.0002,59.0449,271.052,89.0319,5.5486e-05,5.69e-06,0.0,0 STARLINK-5309,1 55310U 23010AT  24206.95091409  .00000569  00000-0  55486-4 0  9993,2 55310  70.0002  59.0449 0002792 271.0520  89.0319 14.98336798 84980,6950.172,96.107,573.977,570.096,0.0
55310.0,STARLINK-5309,PAYLOAD,2024-07-25 00:25:26,14.98337472,0.0002813,70.0004,58.8766,271.1993,88.8844,6.0288e-05,6.27e-06,0.0,0 STARLINK-5309,1 55310U 23010AT  24207.01767325  .00000627  00000-0  60288-4 0  9999,2 55310  70.0004  58.8766 0002813 271.1993  88.8844 14.98337472 84676,6950.17,96.107,573.99,570.08,0.0
55310.0,STARLINK-5309,PAYLOAD,2024-07-25 13:14:31,14.98328821,0.0002635,70.0002,57.5317,279.5692,80.5169,0.00012432,1.391e-05,0.0,0 STARLINK-5309,1 55310U 23010AT  24207.55175706  .00001391  00000-0  12432-3 0  9990,2 55310  70.0002  57.5317 0002635 279.5692  80.5169 14.98328821 84758,6950.197,96.107,573.893,570.23,0.0
55310.0,STARLINK-5309,PAYLOAD,2024-07-26 00:27:28,14.98331525,0.0002838,70.0003,56.3515,276.1089,83.9746,3.4073e-05,3.14e-06,0.0,0 STARLINK-5309,1 55310U 23010AT  24208.01907725  .00000314  00000-0  34073-4 0  9996,2 55310  70.0003  56.3515 0002838 276.1089  83.9746 14.98331525 85141,6950.188,96.107,574.026,570.081,0.0
55310.0,STARLINK-5309,PAYLOAD,2024-07-26 19:41:04,14.98337073,0.0002842,70.001,54.332,265.7733,94.3102,5.4652e-05,5.59e-06,0.0,0 STARLINK-5309,1 55310U 23010AT  24208.82018957  .00000559  00000-0  54652-4 0  9991,2 55310  70.0010  54.3320 0002842 265.7733  94.3102 14.98337073 84949,6950.171,96.107,574.011,570.061,0.0
55310.0,STARLINK-5309,PAYLOAD,2024-07-27 21:19:14,14.98327907,0.0003366,69.9994,51.6375,269.7607,90.3167,-5.6569e-05,-7.68e-06,0.0,0 STARLINK-5309,1 55310U 23010AT  24209.88835700 -.00000768  00000-0 -56569-4 0  9994,2 55310  69.9994  51.6375 0003366 269.7607  90.3167 14.98327907 85429,6950.199,96.107,574.404,569.725,0.0
55310.0,STARLINK-5309,PAYLOAD,2024-07-27 22:55:22,14.98328025,0.0003358,69.9995,51.4691,269.4638,90.6136,-5.5242e-05,-7.52e-06,0.0,0 STARLINK-5309,1 55310U 23010AT  24209.95511691 -.00000752  00000-0 -55242-4 0  9992,2 55310  69.9995  51.4691 0003358 269.4638  90.6136 14.98328025 85118,6950.199,96.107,574.398,569.73,0.0
55310.0,STARLINK-5309,PAYLOAD,2024-07-28 21:21:14,14.98329271,0.000308,69.9998,49.1136,271.1879,88.8927,5.4393e-05,5.56e-06,0.0,0 STARLINK-5309,1 55310U 23010AT  24210.88975466  .00000556  00000-0  54393-4 0  9996,2 55310  69.9998  49.1136 0003080 271.1879  88.8927 14.98329271 85579,6950.195,96.107,574.201,569.919,0.0
55310.0,STARLINK-5309,PAYLOAD,2024-07-28 22:57:22,14.98330155,0.0003089,69.9999,48.9455,271.5369,88.5436,6.1767e-05,6.44e-06,0.0,0 STARLINK-5309,1 55310U 23010AT  24210.95651399  .00000644  00000-0  61767-4 0  9991,2 55310  69.9999  48.9455 0003089 271.5369  88.5436 14.98330155 85269,6950.192,96.107,574.204,569.91,0.0
55310.0,STARLINK-5309,PAYLOAD,2024-07-29 13:22:35,14.98326918,0.0003088,69.9999,47.4302,271.899,88.1815,8.3745e-05,9.06e-06,0.0,0 STARLINK-5309,1 55310U 23010AT  24211.55735583  .00000906  00000-0  83745-4 0  9997,2 55310  69.9999  47.4302 0003088 271.8990  88.1815 14.98326918 85670,6950.202,96.107,574.214,569.921,0.0
55310.0,STARLINK-5309,PAYLOAD,2024-07-29 21:23:15,14.98330469,0.0003032,70.0,46.5881,270.9146,89.1666,0.0001161,1.293e-05,0.0,0 STARLINK-5309,1 55310U 23010AT  24211.89115319  .00001293  00000-0  11610-3 0  9994,2 55310  70.0000  46.5881 0003032 270.9146  89.1666 14.98330469 85727,6950.191,96.107,574.164,569.949,0.0
55310.0,STARLINK-5309,PAYLOAD,2024-07-29 22:59:23,14.98331243,0.0003031,70.0,46.4198,270.9096,89.1716,0.00012267,1.371e-05,0.0,0 STARLINK-5309,1 55310U 23010AT  24211.95791256  .00001371  00000-0  12267-3 0  9997,2 55310  70.0000  46.4198 0003031 270.9096  89.1716 14.98331243 85413,6950.189,96.107,574.161,569.947,0.0
55310.0,STARLINK-5309,PAYLOAD,2024-07-30 23:01:24,14.98334579,0.0003003,70.0001,43.8948,271.1778,88.9037,5.3882e-05,5.5e-06,0.0,0 STARLINK-5309,1 55310U 23010AT  24212.95931086  .00000550  00000-0  53882-4 0  9992,2 55310  70.0001  43.8948 0003003 271.1778  88.9037 14.98334579 85886,6950.179,96.107,574.131,569.957,0.0
55310.0,STARLINK-5309,PAYLOAD,2024-07-31 13:26:37,14.98328916,0.0002964,70.0002,42.3798,271.124,88.958,-3.014e-05,-4.53e-06,0.0,0 STARLINK-5309,1 55310U 23010AT  24213.56015618 -.00000453  00000-0 -30140-4 0  9990,2 55310  70.0002  42.3798 0002964 271.1240  88.9580 14.98328916 85659,6950.196,96.107,574.121,570.001,0.0
55310.0,STARLINK-5309,PAYLOAD,2024-07-31 15:02:45,14.9832909,0.0002968,70.0003,42.2115,271.1152,88.9667,-2.7447e-05,-4.2e-06,0.0,0 STARLINK-5309,1 55310U 23010AT  24213.62691598 -.00000420  00000-0 -27447-4 0  9994,2 55310  70.0003  42.2115 0002968 271.1152  88.9667 14.98329090 85984,6950.196,96.107,574.124,569.998,0.0
55310.0,STARLINK-5309,PAYLOAD,2024-07-31 23:03:25,14.98330208,0.0002962,70.0005,41.3705,270.1715,89.9105,-1.883e-05,-3.18e-06,0.0,0 STARLINK-5309,1 55310U 23010AT  24213.96071514 -.00000318  00000-0 -18830-4 0  9993,2 55310  70.0005  41.3705 0002962 270.1715  89.9105 14.98330208 86037,6950.192,96.107,574.116,569.999,0.0
